OBJECT_NAME,OBJECT_ID,EPOCH,MEAN_MOTION,ECCENTRICITY,INCLINATION,RA_OF_ASC_NODE,ARG_OF_PERICENTER,MEAN_ANOMALY,EPHEMERIS_TYPE,CLASSIFICATION_TYPE,NORAD_CAT_ID,ELEMENT_SET_NO,REV_AT_EPOCH,BSTAR,MEAN_MOTION_DOT,MEAN_MOTION_DDOT
OCEANSAT-2,2009-051A,2026-06-08T04:36:58.193280,13.99663979,.0014633,98.2330,146.9411,263.5873,96.3627,0,U,35931,999,87807,.99407E-4,.108E-5,0
WORLDVIEW-2 (WV-2),2009-055A,2026-06-08T02:49:20.907840,14.37896886,.0003253,98.4736,232.6920,241.2503,118.8358,0,U,35946,999,87434,.57952E-4,.131E-5,0
SMOS,2009-059A,2026-06-08T00:23:10.486176,14.39767788,.000134,98.4427,346.4855,89.7618,270.3723,0,U,36036,999,87213,.10106E-3,.273E-5,0
YAOGAN-7,2009-069A,2026-06-08T03:39:30.162816,14.78000802,.0025962,98.0083,45.0749,69.5703,290.8292,0,U,36110,999,88829,.7949E-4,.524E-5,0
TANDEM-X,2010-030A,2026-06-07T12:13:05.205792,15.19145306,.0001847,97.4409,166.3531,77.0433,283.1008,0,U,36605,999,88517,.51145E-4,.1007E-4,0
CARTOSAT-2B,2010-035A,2026-06-08T04:54:04.767840,14.78650138,.0010429,97.9953,209.8110,214.6768,145.3764,0,U,36795,999,85852,.84343E-4,.566E-5,0
YAOGAN-10,2010-038A,2026-06-08T04:36:11.258208,14.85323310,.00017,97.8982,182.6684,88.2706,345.7601,0,U,36834,999,85587,.21857E-3,.1825E-4,0
COSMO-SKYMED 4,2010-060A,2026-06-08T04:40:29.419680,14.82161100,.0001405,97.8889,342.9250,83.5573,276.5800,0,U,37216,999,84323,.39584E-4,.263E-5,0
RESOURCESAT-2,2011-015A,2026-06-08T03:36:35.534592,14.21604573,.001014,98.7644,226.6543,284.7279,75.2774,0,U,37387,999,78489,.55552E-4,.77E-6,0
HAIYANG-2A,2011-043A,2026-06-08T03:46:47.171424,13.74549176,.0006272,99.3397,162.0327,109.2995,250.8833,0,U,37781,999,74541,-.1546E-3,-.19E-5,0
RASAT,2011-044D,2026-06-08T04:27:55.113120,14.68159008,.001953,98.0568,250.7202,218.2533,228.7334,0,U,37791,999,79186,.13514E-3,.73E-5,0
SRMSAT,2011-058D,2026-06-08T04:49:16.000032,14.11573773,.0011953,19.9708,113.8593,105.3030,101.4235,0,U,37841,999,75654,.61376E-4,.378E-5,0
PLEIADES 1A,2011-076F,2026-06-08T05:05:04.158816,14.58565907,.0001504,98.1971,234.4348,97.8689,346.6959,0,U,38012,999,77068,.90957E-4,.377E-5,0
ZIYUAN 1-02C (ZY 1-02C),2011-079A,2026-06-08T05:38:34.240128,14.38208013,.0006072,98.4068,226.7305,346.5999,49.7492,0,U,38038,999,75792,.16619E-3,.462E-5,0
ARIRANG-3 (KOMPSAT-3),2012-025B,2026-06-08T03:16:51.634272,14.62198643,.0006293,98.1173,116.7532,132.6287,227.5446,0,U,38338,999,75002,.10987E-3,.507E-5,0
EXACTVIEW-1 (ADS-1B),2012-039C,2026-06-07T21:39:02.255616,14.24981995,.0010657,98.9766,276.0831,192.8560,167.2348,0,U,38709,999,72138,.82016E-4,.145E-5,0
SPOT 6,2012-047A,2026-06-08T03:25:07.469184,14.58557954,.0001444,98.2116,226.5569,92.6971,267.4393,0,U,38755,999,73173,.85815E-4,.353E-5,0
PLEIADES 1B,2012-068A,2026-06-08T03:52:20.480160,14.58555200,.0001588,98.1941,234.3370,94.4335,265.7045,0,U,39019,999,71953,.77933E-4,.317E-5,0
GOKTURK 2,2012-073A,2026-06-08T04:44:03.533568,14.75535103,.0001915,97.6825,357.0793,60.8977,299.2425,0,U,39030,999,72318,.12452E-3,.801E-5,0
LANDSAT 8,2013-008A,2026-06-08T03:59:27.494880,14.57112786,.0001461,98.2302,229.4084,96.0467,264.0898,0,U,39084,999,69658,.81671E-4,.323E-5,0
SARAL,2013-009A,2026-06-08T04:08:16.147968,14.32853722,.0001217,98.5558,345.8541,352.4180,7.6986,0,U,39086,999,69431,.46528E-4,.83E-6,0
GAOFEN-1,2013-018A,2026-06-08T01:11:55.431168,14.76526544,.0015888,97.9091,231.3033,298.8203,61.1412,0,U,39150,999,70689,.35695E-4,.198E-5,0
VNREDSAT 1,2013-021B,2026-06-08T03:22:41.830752,14.64848237,.0001665,97.9080,212.9041,89.7153,270.4241,0,U,39160,999,69896,.14628E-3,.736E-5,0
ARIRANG-5 (KOMPSAT-5),2013-042A,2026-06-08T04:29:44.182752,15.04556469,.0004146,97.6216,346.0143,142.7095,217.4419,0,U,39227,999,70250,.13283E-3,.1802E-4,0
SKYSAT-A,2013-066C,2026-06-08T03:07:39.011232,15.12928226,.0020941,97.3818,208.8161,350.2643,9.8179,0,U,39418,999,68711,.1974E-3,.3431E-4,0
DUBAISAT-2,2013-066D,2026-06-08T04:36:20.044224,15.10115336,.001279,97.4563,149.5727,67.7994,292.4591,0,U,39419,999,68503,.30769E-3,.4962E-4,0
GPM-CORE,2014-009C,2026-06-08T01:56:45.007872,15.45442814,.0012072,64.9731,338.6333,270.0173,89.9584,0,U,39574,999,69640,.16179E-3,.7554E-4,0
SENTINEL-1A,2014-016A,2026-06-08T04:17:39.450912,14.59199963,.0001429,98.1782,166.8435,81.1804,278.9558,0,U,39634,999,64870,.27291E-4,.83E-6,0
KAZEOSAT 1,2014-024A,2026-06-08T03:22:15.027744,14.42076729,.0001484,98.3201,231.8122,75.0947,285.0407,0,U,39731,999,63725,.7616E-4,.208E-5,0
ALOS-2,2014-029A,2026-06-08T03:27:21.331296,14.79469616,.0001683,97.9210,256.4371,92.3861,267.7543,0,U,39766,999,65024,.14191E-3,.1008E-4,0
KAZEOSAT 2,2014-033A,2026-06-08T03:16:22.058688,14.85460734,.0008797,97.5414,359.2261,0.3690,359.7531,0,U,40010,999,64761,.83277E-4,.668E-5,0
