OCEANSAT-2              
1 35931U 09051A   26159.19234020  .00000108  00000+0  99407-4 0  9991
2 35931  98.2330 146.9411 0014633 263.5873  96.3627 13.99663979878070
WORLDVIEW-2 (WV-2)      
1 35946U 09055A   26159.11760310  .00000131  00000+0  57952-4 0  9994
2 35946  98.4736 232.6920 0003253 241.2503 118.8358 14.37896886874340
SMOS                    
1 36036U 09059A   26159.01609359  .00000273  00000+0  10106-3 0  9999
2 36036  98.4427 346.4855 0001340  89.7618 270.3723 14.39767788872131
YAOGAN-7                
1 36110U 09069A   26159.15243244  .00000524  00000+0  79490-4 0  9996
2 36110  98.0083  45.0749 0025962  69.5703 290.8292 14.78000802888291
TANDEM-X                
1 36605U 10030A   26158.50908803  .00001007  00000+0  51145-4 0  9996
2 36605  97.4409 166.3531 0001847  77.0433 283.1008 15.19145306885170
CARTOSAT-2B             
1 36795U 10035A   26159.20422185  .00000566  00000+0  84343-4 0  9998
2 36795  97.9953 209.8110 0010429 214.6768 145.3764 14.78650138858526
YAOGAN-10               
1 36834U 10038A   26159.19179697  .00001825  00000+0  21857-3 0  9999
2 36834  97.8982 182.6684 0001700  88.2706 345.7601 14.85323310855872
COSMO-SKYMED 4          
1 37216U 10060A   26159.19478495  .00000263  00000+0  39584-4 0  9999
2 37216  97.8889 342.9250 0001405  83.5573 276.5800 14.82161100843238
RESOURCESAT-2           
1 37387U 11015A   26159.15041128  .00000077  00000+0  55552-4 0  9990
2 37387  98.7644 226.6543 0010140 284.7279  75.2774 14.21604573784892
HAIYANG-2A              
1 37781U 11043A   26159.15749041 -.00000190  00000+0 -15460-3 0  9999
2 37781  99.3397 162.0327 0006272 109.2995 250.8833 13.74549176745418
RASAT                   
1 37791U 11044D   26159.18605455  .00000730  00000+0  13514-3 0  9990
2 37791  98.0568 250.7202 0019530 218.2533 228.7334 14.68159008791867
SRMSAT                  
1 37841U 11058D   26159.20087963  .00000378  00000+0  61376-4 0  9990
2 37841  19.9708 113.8593 0011953 105.3030 101.4235 14.11573773756542
PLEIADES 1A             
1 38012U 11076F   26159.21185369  .00000377  00000+0  90957-4 0  9997
2 38012  98.1971 234.4348 0001504  97.8689 346.6959 14.58565907770686
ZIYUAN 1-02C (ZY 1-02C) 
1 38038U 11079A   26159.23511852  .00000462  00000+0  16619-3 0  9997
2 38038  98.4068 226.7305 0006072 346.5999  49.7492 14.38208013757929
ARIRANG-3 (KOMPSAT-3)   
1 38338U 12025B   26159.13670873  .00000507  00000+0  10987-3 0  9992
2 38338  98.1173 116.7532 0006293 132.6287 227.5446 14.62198643750028
EXACTVIEW-1 (ADS-1B)    
1 38709U 12039C   26158.90210944  .00000145  00000+0  82016-4 0  9993
2 38709  98.9766 276.0831 0010657 192.8560 167.2348 14.24981995721385
SPOT 6                  
1 38755U 12047A   26159.14244756  .00000353  00000+0  85815-4 0  9999
2 38755  98.2116 226.5569 0001444  92.6971 267.4393 14.58557954731737
PLEIADES 1B             
1 39019U 12068A   26159.16134815  .00000317  00000+0  77933-4 0  9994
2 39019  98.1941 234.3370 0001588  94.4335 265.7045 14.58555200719537
GOKTURK 2               
1 39030U 12073A   26159.19726312  .00000801  00000+0  12452-3 0  9997
2 39030  97.6825 357.0793 0001915  60.8977 299.2425 14.75535103723189
LANDSAT 8               
1 39084U 13008A   26159.16629045  .00000323  00000+0  81671-4 0  9996
2 39084  98.2302 229.4084 0001461  96.0467 264.0898 14.57112786696586
SARAL                   
1 39086U 13009A   26159.17240912  .00000083  00000+0  46528-4 0  9997
2 39086  98.5558 345.8541 0001217 352.4180   7.6986 14.32853722694318
GAOFEN-1                
1 39150U 13018A   26159.04994712  .00000198  00000+0  35695-4 0  9999
2 39150  97.9091 231.3033 0015888 298.8203  61.1412 14.76526544706891
VNREDSAT 1              
1 39160U 13021B   26159.14076193  .00000736  00000+0  14628-3 0  9999
2 39160  97.9080 212.9041 0001665  89.7153 270.4241 14.64848237698969
ARIRANG-5 (KOMPSAT-5)   
1 39227U 13042A   26159.18731693  .00001802  00000+0  13283-3 0  9994
2 39227  97.6216 346.0143 0004146 142.7095 217.4419 15.04556469702507
SKYSAT-A                
1 39418U 13066C   26159.13031263  .00003431  00000+0  19740-3 0  9997
2 39418  97.3818 208.8161 0020941 350.2643   9.8179 15.12928226687113
DUBAISAT-2              
1 39419U 13066D   26159.19189866  .00004962  00000+0  30769-3 0  9991
2 39419  97.4563 149.5727 0012790  67.7994 292.4591 15.10115336685038
GPM-CORE                
1 39574U 14009C   26159.08107648  .00007554  00000+0  16179-3 0  9996
2 39574  64.9731 338.6333 0012072 270.0173  89.9584 15.45442814696407
SENTINEL-1A             
1 39634U 14016A   26159.17892883  .00000083  00000+0  27291-4 0  9991
2 39634  98.1782 166.8435 0001429  81.1804 278.9558 14.59199963648708
KAZEOSAT 1              
1 39731U 14024A   26159.14045171  .00000208  00000+0  76160-4 0  9993
2 39731  98.3201 231.8122 0001484  75.0947 285.0407 14.42076729637257
ALOS-2                  
1 39766U 14029A   26159.14399689  .00001008  00000+0  14191-3 0  9996
2 39766  97.9210 256.4371 0001683  92.3861 267.7543 14.79469616650240
KAZEOSAT 2              
1 40010U 14033A   26159.13636642  .00000668  00000+0  83277-4 0  9990
2 40010  97.5414 359.2261 0008797   0.3690 359.7531 14.85460734647613
